NORAD_CAT_ID,OBJECT_NAME,OBJECT_TYPE,EPOCH,MEAN_MOTION,ECCENTRICITY,INCLINATION,RA_OF_ASC_NODE,ARG_OF_PERICENTER,MEAN_ANOMALY,BSTAR,MEAN_MOTION_DOT,MEAN_MOTION_DDOT,TLE_LINE0,TLE_LINE1,TLE_LINE2,SEMIMAJOR_AXIS,PERIOD,APOGEE,PERIGEE,DECAYED
49136.0,STARLINK-3084,PAYLOAD,2022-04-04 14:00:01,14.96733619,0.0003039,69.9982,291.9318,264.7567,63.7543,-0.0004459,-5.194e-05,0.0,0 STARLINK-3084,1 49136U 21082G   22094.58334491 -.00005194  00000-0 -44590-3 0  9996,2 49136  69.9982 291.9318 0003039 264.7567  63.7543 14.96733619  3586,6955.134,96.21,579.113,574.885,0.0
49136.0,STARLINK-3084,PAYLOAD,2022-04-04 22:00:00,14.96709249,0.0003003,69.9983,291.0931,271.4559,52.6268,0.0030737,0.00035262,0.0,0 STARLINK-3084,1 49136U 21082G   22094.91667824  .00035262  00000-0  30737-2 0  9996,2 49136  69.9983 291.0931 0003003 271.4559  52.6268 14.96709249  3589,6955.209,96.211,579.163,574.986,0.0
49136.0,STARLINK-3084,PAYLOAD,2022-04-05 00:00:00,14.96713885,0.000304,69.9981,290.8834,271.8853,141.085,0.0028628,0.00032828,0.0,0 STARLINK-3084,1 49136U 21082G   22095.00001157  .00032828  00000-0  28628-2 0  9999,2 49136  69.9981 290.8834 0003040 271.8853 141.0850 14.96713885 31603,6955.195,96.211,579.174,574.946,0.0
49136.0,STARLINK-3084,PAYLOAD,2022-04-05 14:00:01,14.96737159,0.0003136,69.9984,289.416,264.2071,51.0489,-0.0033004,-0.00037685,0.0,0 STARLINK-3084,1 49136U 21082G   22095.58335648 -.00037685  00000-0 -33004-2 0  9999,2 49136  69.9984 289.4160 0003136 264.2071  51.0489 14.96737159  3546,6955.123000000001,96.209,579.169,574.807,0.0
49136.0,STARLINK-3084,PAYLOAD,2022-04-05 16:00:00,14.96736053,0.0003174,69.9985,289.2063,265.8471,138.2376,-0.004329,-0.00049319,0.0,0 STARLINK-3084,1 49136U 21082G   22095.66667824 -.00049319  00000-0 -43290-2 0  9997,2 49136  69.9985 289.2063 0003174 265.8471 138.2376 14.96736053 31692,6955.126,96.209,579.1990000000002,574.784,0.0
49136.0,STARLINK-3084,PAYLOAD,2022-04-05 22:00:00,14.96691376,0.0003157,69.9984,288.5774,270.5555,40.1998,0.0029363,0.00033658,0.0,0 STARLINK-3084,1 49136U 21082G   22095.91667824  .00033658  00000-0  29363-2 0  9997,2 49136  69.9984 288.5774 0003157 270.5555  40.1998 14.96691376  3596,6955.265,96.212,579.326,574.934,0.0
49136.0,STARLINK-3084,PAYLOAD,2022-04-06 06:00:02,14.96712688,0.0003176,69.9982,287.7388,267.2092,39.1465,-0.0012996,-0.00014934,0.0,0 STARLINK-3084,1 49136U 21082G   22096.25002315 -.00014934  00000-0 -12996-2 0  9995,2 49136  69.9982 287.7388 0003176 267.2092  39.1465 14.96712688 31785,6955.199000000001,96.211,579.273,574.855,0.0
49136.0,STARLINK-3084,PAYLOAD,2022-04-06 14:00:01,14.96732144,0.0003226,69.9986,286.9004,263.8248,37.9981,-0.0012973,-0.00014915,0.0,0 STARLINK-3084,1 49136U 21082G   22096.58334491 -.00014915  00000-0 -12973-2 0  9998,2 49136  69.9986 286.9004 0003226 263.8248  37.9981 14.96732144  3592,6955.139,96.21,579.247,574.76,0.0
49136.0,STARLINK-3084,PAYLOAD,2022-04-06 22:00:00,14.96700514,0.0003207,69.9985,286.0619,270.0674,27.3198,0.0031864,0.00036557,0.0,0 STARLINK-3084,1 49136U 21082G   22096.91667824  .00036557  00000-0  31864-2 0  9998,2 49136  69.9985 286.0619 0003207 270.0674  27.3198 14.96700514 31888,6955.236999999999,96.212,579.332,574.871,0.0
49136.0,STARLINK-3084,PAYLOAD,2022-04-07 14:00:01,14.96755775,0.0003251,69.9988,284.385,263.8048,24.6712,-0.0046208,-0.00052639,0.0,0 STARLINK-3084,1 49136U 21082G   22097.58334491 -.00052639  00000-0 -46208-2 0  9992,2 49136  69.9988 284.3850 0003251 263.8048  24.6712 14.96755775  3591,6955.065,96.208,579.191,574.669,0.0
49136.0,STARLINK-3084,PAYLOAD,2022-04-07 20:00:01,14.96704831,0.0003157,69.9986,283.7562,269.1446,286.022,-0.00046342,-5.39e-05,0.0,0 STARLINK-3084,1 49136U 21082G   22097.83334491 -.00005390  00000-0 -46342-3 0  9992,2 49136  69.9986 283.7562 0003157 269.1446 286.0220 14.96704831 32023,6955.223000000001,96.211,579.284,574.8919999999998,0.0
49136.0,STARLINK-3084,PAYLOAD,2022-04-07 22:00:00,14.96687962,0.000311,69.9986,283.5465,270.2061,13.8491,0.0027403,0.00031392,0.0,0 STARLINK-3084,1 49136U 21082G   22097.91667824  .00031392  00000-0  27403-2 0  9995,2 49136  69.9986 283.5465 0003110 270.2061  13.8491 14.96687962  3588,6955.275,96.212,579.303,574.977,0.0
49136.0,STARLINK-3084,PAYLOAD,2022-04-08 14:00:03,14.96734226,0.0003155,69.9989,281.8698,264.3376,10.9002,-0.0024664,-0.00028221,0.0,0 STARLINK-3084,1 49136U 21082G   22098.58336806 -.00028221  00000-0 -24664-2 0  9997,2 49136  69.9989 281.8698 0003155 264.3376  10.9002 14.96734226  3584,6955.132,96.209,579.191,574.803,0.0
49136.0,STARLINK-3084,PAYLOAD,2022-04-08 22:00:00,14.96696291,0.0003076,69.9986,281.0314,270.8803,359.7951,0.0037954,0.000436,0.0,0 STARLINK-3084,1 49136U 21082G   22098.91667824  .00043600  00000-0  37954-2 0  9993,2 49136  69.9986 281.0314 0003076 270.8803 359.7951 14.96696291 32181,6955.25,96.212,579.254,574.975,0.0
49136.0,STARLINK-3084,PAYLOAD,2022-04-09 14:00:01,14.96742267,0.0003091,69.9995,279.3547,264.6701,357.079,-0.0027691,-0.00031665,0.0,0 STARLINK-3084,1 49136U 21082G   22099.58334491 -.00031665  00000-0 -27691-2 0  9995,2 49136  69.9995 279.3547 0003091 264.6701 357.0790 14.96742267  3583,6955.107,96.209,579.122,574.822,0.0
49136.0,STARLINK-3084,PAYLOAD,2022-04-09 16:00:00,14.96739807,0.0003097,69.9996,279.145,266.6438,83.9982,-0.003088,-0.0003528,0.0,0 STARLINK-3084,1 49136U 21082G   22099.66667824 -.00035280  00000-0 -30880-2 0  9994,2 49136  69.9996 279.1450 0003097 266.6438  83.9982 14.96739807 32294,6955.115,96.209,579.134,574.826,0.0
49136.0,STARLINK-3084,PAYLOAD,2022-04-09 22:00:00,14.96704566,0.0003035,70.0001,278.5162,271.3446,345.9751,0.0035944,0.00041281,0.0,0 STARLINK-3084,1 49136U 21082G   22099.91667824  .00041281  00000-0  35944-2 0  9994,2 49136  70.0001 278.5162 0003035 271.3446 345.9751 14.96704566  3580,6955.224,96.211,579.2,574.9780000000002,0.0
49136.0,STARLINK-3084,PAYLOAD,2022-04-10 06:00:02,14.96720131,0.0002998,70.0006,277.6778,266.2618,346.681,0.00017301,1.889e-05,0.0,0 STARLINK-3084,1 49136U 21082G   22100.25002315  .00001889  00000-0  17301-3 0  9990,2 49136  70.0006 277.6778 0002998 266.2618 346.6810 14.96720131 32389,6955.176,96.21,579.126,574.956,0.0
49136.0,STARLINK-3084,PAYLOAD,2022-04-10 14:00:01,14.96743489,0.0002988,70.0008,276.8394,264.224,344.2069,-0.004594,-0.00052319,0.0,0 STARLINK-3084,1 49136U 21082G   22100.58334491 -.00052319  00000-0 -45940-2 0  9994,2 49136  70.0008 276.8394 0002988 264.2240 344.2069 14.96743489  3585,6955.103,96.209,579.047,574.89,0.0
49136.0,STARLINK-3084,PAYLOAD,2022-04-10 22:00:00,14.96695051,0.0002943,70.0006,276.0011,270.8476,333.1494,0.0038,0.00043652,0.0,0 STARLINK-3084,1 49136U 21082G   22100.91667824  .00043652  00000-0  38000-2 0  9997,2 49136  70.0006 276.0011 0002943 270.8476 333.1494 14.96695051  3586,6955.253000000002,96.212,579.165,575.072,0.0
49136.0,STARLINK-3084,PAYLOAD,2022-04-11 14:00:01,14.96741763,0.0003008,70.0006,274.3244,263.8644,331.2058,-0.0027829,-0.00031821,0.0,0 STARLINK-3084,1 49136U 21082G   22101.58334491 -.00031821  00000-0 -27829-2 0  9996,2 49136  70.0006 274.3244 0003008 263.8644 331.2058 14.96741763 32586,6955.109,96.209,579.066,574.882,0.0
49136.0,STARLINK-3084,PAYLOAD,2022-04-11 22:00:00,14.9671449,0.000307,70.0003,273.4859,269.8885,320.7471,-0.00037284,-4.356e-05,0.0,0 STARLINK-3084,1 49136U 21082G   22101.91667824 -.00004356  00000-0 -37284-3 0  9992,2 49136  70.0003 273.4859 0003070 269.8885 320.7471 14.96714490  3573,6955.193,96.211,579.193,574.923,0.0
49136.0,STARLINK-3084,PAYLOAD,2022-04-12 14:00:01,14.96724495,0.0003196,70.0004,271.8092,263.9271,317.7666,-0.0034419,-0.00039276,0.0,0 STARLINK-3084,1 49136U 21082G   22102.58334491 -.00039276  00000-0 -34419-2 0  9992,2 49136  70.0004 271.8092 0003196 263.9271 317.7666 14.96724495  3576,6955.1619999999975,96.21,579.25,574.804,0.0
49136.0,STARLINK-3084,PAYLOAD,2022-04-12 22:00:00,14.966635,0.000312,70.0,270.9843,266.6723,310.5509,0.0071568,0.0008269,0.0,0 STARLINK-3084,1 49136U 21082G   22102.91667824  .00082690  00000-0  71568-2 0  9990,2 49136  70.0000 270.9843 0003120 266.6723 310.5509 14.96663500  3571,6955.351,96.214,579.386,575.0459999999998,0.0
49136.0,STARLINK-3084,PAYLOAD,2022-04-13 06:00:00,14.96681807,0.0003206,70.0001,270.1324,264.7837,307.9905,0.0033838,0.00038821,0.0,0 STARLINK-3084,1 49136U 21082G   22103.25001157  .00038821  00000-0  33838-2 0  9994,2 49136  70.0001 270.1324 0003206 264.7837 307.9905 14.96681807 32839,6955.294,96.213,579.389,574.93,0.0
49136.0,STARLINK-3084,PAYLOAD,2022-04-13 14:00:03,14.96736647,0.0003244,70.0003,269.2941,264.4355,303.9833,-0.003728,-0.00042526,0.0,0 STARLINK-3084,1 49136U 21082G   22103.58336806 -.00042526  00000-0 -37280-2 0  9996,2 49136  70.0003 269.2941 0003244 264.4355 303.9833 14.96736647  3599,6955.125,96.209,579.246,574.7330000000002,0.0
49136.0,STARLINK-3084,PAYLOAD,2022-04-13 22:00:00,14.96698623,0.0003186,69.9999,268.4557,270.1171,293.7351,0.0033925,0.00038939,0.0,0 STARLINK-3084,1 49136U 21082G   22103.91667824  .00038939  00000-0  33925-2 0  9993,2 49136  69.9999 268.4557 0003186 270.1171 293.7351 14.96698623 32931,6955.2419999999975,96.212,579.323,574.891,0.0
49136.0,STARLINK-3084,PAYLOAD,2022-04-14 14:00:01,14.967447,0.000321,70.0003,266.7791,265.0266,289.9072,-0.0037972,-0.00043318,0.0,0 STARLINK-3084,1 49136U 21082G   22104.58334491 -.00043318  00000-0 -37972-2 0  9993,2 49136  70.0003 266.7791 0003210 265.0266 289.9072 14.96744700 33034,6955.1,96.209,579.197,574.732,0.0
49136.0,STARLINK-3084,PAYLOAD,2022-04-14 22:00:00,14.96710354,0.0003151,70.0,265.9406,270.6655,279.8347,0.0027419,0.00031429,0.0,0 STARLINK-3084,1 49136U 21082G   22104.91667824  .00031429  00000-0  27419-2 0  9992,2 49136  70.0000 265.9406 0003151 270.6655 279.8347 14.96710354  3592,6955.206,96.211,579.263,574.879,0.0
